ADRAS-J                 
1 58992U 24034A   24182.90722752  .00005016  00000+0  46524-3 0  9992
2 58992  98.2117 156.5488 0044018   6.0772 354.0972 14.94201377 19917
